[{"OBJECT_NAME":"OBJECT F","OBJECT_ID":"2023-072F","EPOCH":"2026-03-09T23:31:37.259904","MEAN_MOTION":15.29470958,"ECCENTRICITY":0.00062878,"INCLINATION":97.5173,"RA_OF_ASC_NODE":265.798,"ARG_OF_PERICENTER":19.0017,"MEAN_ANOMALY":341.1456,"EPHEMERIS_TYPE":0,"CLASSIFICATION_TYPE":"U","NORAD_CAT_ID":56748,"ELEMENT_SET_NO":999,"REV_AT_EPOCH":15460,"BSTAR":0.00043416252,"MEAN_MOTION_DOT":0.00012341,"MEAN_MOTION_DDOT":0},{"OBJECT_NAME":"STARLINK-35921","OBJECT_ID":"2025-271Z","EPOCH":"2026-03-09T12:16:11.715744","MEAN_MOTION":15.3018855,"ECCENTRICITY":0.0001416,"INCLINATION":53.1593,"RA_OF_ASC_NODE":140.4565,"ARG_OF_PERICENTER":76.929,"MEAN_ANOMALY":283.1869,"EPHEMERIS_TYPE":0,"CLASSIFICATION_TYPE":"U","NORAD_CAT_ID":66640,"ELEMENT_SET_NO":999,"REV_AT_EPOCH":1754,"BSTAR":0.00073634109,"MEAN_MOTION_DOT":0.00021505,"MEAN_MOTION_DDOT":0}]
